[{"OBJECT_NAME":"ONEWEB-0694","OBJECT_ID":"2023-068N","EPOCH":"2026-04-22T06:38:24.244800","MEAN_MOTION":13.1659521,"ECCENTRICITY":0.0001465,"INCLINATION":87.9087,"RA_OF_ASC_NODE":239.8563,"ARG_OF_PERICENTER":110.581,"MEAN_ANOMALY":249.5478,"EPHEMERIS_TYPE":0,"CLASSIFICATION_TYPE":"U","NORAD_CAT_ID":56722,"ELEMENT_SET_NO":999,"REV_AT_EPOCH":14441,"BSTAR":0.00025058000000000003,"MEAN_MOTION_DOT":1.09e-06,"MEAN_MOTION_DDOT":0.0},{"OBJECT_NAME":"ONEWEB-0696","OBJECT_ID":"2023-068P","EPOCH":"2026-04-21T21:21:57.254400","MEAN_MOTION":13.15548523,"ECCENTRICITY":0.0002169,"INCLINATION":87.8945,"RA_OF_ASC_NODE":270.4522,"ARG_OF_PERICENTER":87.9296,"MEAN_ANOMALY":272.2082,"EPHEMERIS_TYPE":0,"CLASSIFICATION_TYPE":"U","NORAD_CAT_ID":56723,"ELEMENT_SET_NO":999,"REV_AT_EPOCH":14196,"BSTAR":0.00034997,"MEAN_MOTION_DOT":1.45e-06,"MEAN_MOTION_DDOT":0.0},{"OBJECT_NAME":"ONEWEB-0703","OBJECT_ID":"2023-068Q","EPOCH":"2026-04-22T03:04:13.220256","MEAN_MOTION":13.15549304,"ECCENTRICITY":0.0002696,"INCLINATION":87.8945,"RA_OF_ASC_NODE":270.3858,"ARG_OF_PERICENTER":93.6756,"MEAN_ANOMALY":266.4682,"EPHEMERIS_TYPE":0,"CLASSIFICATION_TYPE":"U","NORAD_CAT_ID":56724,"ELEMENT_SET_NO":999,"REV_AT_EPOCH":14188,"BSTAR":0.00025983,"MEAN_MOTION_DOT":1.11e-06,"MEAN_MOTION_DDOT":0.0},{"OBJECT_NAME":"ONEWEB-0721","OBJECT_ID":"2023-068R","EPOCH":"2026-04-22T07:16:49.643904","MEAN_MOTION":13.22465693,"ECCENTRICITY":0.0001966,"INCLINATION":86.6722,"RA_OF_ASC_NODE":103.3567,"ARG_OF_PERICENTER":87.295,"MEAN_ANOMALY":272.8408,"EPHEMERIS_TYPE":0,"CLASSIFICATION_TYPE":"U","NORAD_CAT_ID":56725,"ELEMENT_SET_NO":999,"REV_AT_EPOCH":15055,"BSTAR":0.00017167,"MEAN_MOTION_DOT":8.6e-07,"MEAN_MOTION_DDOT":0.0},{"OBJECT_NAME":"ONEWEB-0015","OBJECT_ID":"2024-188A","EPOCH":"2026-04-22T05:33:08.032608","MEAN_MOTION":13.11415754,"ECCENTRICITY":0.0001785,"INCLINATION":87.8921,"RA_OF_ASC_NODE":32.2176,"ARG_OF_PERICENTER":97.4379,"MEAN_ANOMALY":262.6951,"EPHEMERIS_TYPE":0,"CLASSIFICATION_TYPE":"U","NORAD_CAT_ID":61594,"ELEMENT_SET_NO":999,"REV_AT_EPOCH":7712,"BSTAR":0.0016075,"MEAN_MOTION_DOT":5.82e-06,"MEAN_MOTION_DDOT":0.0},{"OBJECT_NAME":"ONEWEB-0687","OBJECT_ID":"2024-188B","EPOCH":"2026-04-22T06:22:46.477344","MEAN_MOTION":13.17647372,"ECCENTRICITY":0.0001408,"INCLINATION":87.9177,"RA_OF_ASC_NODE":16.9903,"ARG_OF_PERICENTER":90.7386,"MEAN_ANOMALY":269.3907,"EPHEMERIS_TYPE":0,"CLASSIFICATION_TYPE":"U","NORAD_CAT_ID":61595,"ELEMENT_SET_NO":999,"REV_AT_EPOCH":7853,"BSTAR":-0.00017858,"MEAN_MOTION_DOT":-5.6e-07,"MEAN_MOTION_DDOT":0.0},{"OBJECT_NAME":"ONEWEB-0688","OBJECT_ID":"2024-188C","EPOCH":"2026-04-22T07:04:05.788416","MEAN_MOTION":13.17647732,"ECCENTRICITY":0.0002051,"INCLINATION":87.9179,"RA_OF_ASC_NODE":16.9841,"ARG_OF_PERICENTER":116.6525,"MEAN_ANOMALY":243.4817,"EPHEMERIS_TYPE":0,"CLASSIFICATION_TYPE":"U","NORAD_CAT_ID":61596,"ELEMENT_SET_NO":999,"REV_AT_EPOCH":7853,"BSTAR":3.0175999999999997e-05,"MEAN_MOTION_DOT":2.5e-07,"MEAN_MOTION_DDOT":0.0},{"OBJECT_NAME":"ONEWEB-0689","OBJECT_ID":"2024-188D","EPOCH":"2026-04-22T06:21:56.946816","MEAN_MOTION":13.11417273,"ECCENTRICITY":0.0001531,"INCLINATION":87.8941,"RA_OF_ASC_NODE":32.1581,"ARG_OF_PERICENTER":75.2094,"MEAN_ANOMALY":284.9204,"EPHEMERIS_TYPE":0,"CLASSIFICATION_TYPE":"U","NORAD_CAT_ID":61597,"ELEMENT_SET_NO":999,"REV_AT_EPOCH":7712,"BSTAR":-0.0012951,"MEAN_MOTION_DOT":-4.46e-06,"MEAN_MOTION_DDOT":0.0},{"OBJECT_NAME":"ONEWEB-0690","OBJECT_ID":"2024-188E","EPOCH":"2026-04-22T04:46:44.293728","MEAN_MOTION":13.11416933,"ECCENTRICITY":0.0002536,"INCLINATION":87.8932,"RA_OF_ASC_NODE":32.1894,"ARG_OF_PERICENTER":78.6488,"MEAN_ANOMALY":281.4924,"EPHEMERIS_TYPE":0,"CLASSIFICATION_TYPE":"U","NORAD_CAT_ID":61598,"ELEMENT_SET_NO":999,"REV_AT_EPOCH":7729,"BSTAR":-0.0010606,"MEAN_MOTION_DOT":-3.63e-06,"MEAN_MOTION_DDOT":0.0},{"OBJECT_NAME":"ONEWEB-0691","OBJECT_ID":"2024-188F","EPOCH":"2026-04-22T04:39:24.957504","MEAN_MOTION":13.11417492,"ECCENTRICITY":0.000176,"INCLINATION":87.8941,"RA_OF_ASC_NODE":32.0933,"ARG_OF_PERICENTER":91.3001,"MEAN_ANOMALY":268.8329,"EPHEMERIS_TYPE":0,"CLASSIFICATION_TYPE":"U","NORAD_CAT_ID":61599,"ELEMENT_SET_NO":999,"REV_AT_EPOCH":7714,"BSTAR":-0.0014306,"MEAN_MOTION_DOT":-4.94e-06,"MEAN_MOTION_DDOT":0.0},{"OBJECT_NAME":"ONEWEB-0692","OBJECT_ID":"2024-188G","EPOCH":"2026-04-22T05:08:43.141344","MEAN_MOTION":13.11417897,"ECCENTRICITY":0.0001816,"INCLINATION":87.8917,"RA_OF_ASC_NODE":32.2132,"ARG_OF_PERICENTER":53.0445,"MEAN_ANOMALY":307.0849,"EPHEMERIS_TYPE":0,"CLASSIFICATION_TYPE":"U","NORAD_CAT_ID":61600,"ELEMENT_SET_NO":999,"REV_AT_EPOCH":7713,"BSTAR":0.0010559,"MEAN_MOTION_DOT":3.87e-06,"MEAN_MOTION_DDOT":0.0},{"OBJECT_NAME":"ONEWEB-0693","OBJECT_ID":"2024-188H","EPOCH":"2026-04-22T05:31:45.487776","MEAN_MOTION":13.17647318,"ECCENTRICITY":0.0002636,"INCLINATION":87.9176,"RA_OF_ASC_NODE":17.0186,"ARG_OF_PERICENTER":84.2011,"MEAN_ANOMALY":275.9421,"EPHEMERIS_TYPE":0,"CLASSIFICATION_TYPE":"U","NORAD_CAT_ID":61601,"ELEMENT_SET_NO":999,"REV_AT_EPOCH":7851,"BSTAR":2.5555000000000002e-05,"MEAN_MOTION_DOT":2.3e-07,"MEAN_MOTION_DDOT":0.0},{"OBJECT_NAME":"ONEWEB-0695","OBJECT_ID":"2024-188J","EPOCH":"2026-04-22T06:24:23.186592","MEAN_MOTION":13.11417474,"ECCENTRICITY":0.0001514,"INCLINATION":87.8922,"RA_OF_ASC_NODE":32.1947,"ARG_OF_PERICENTER":62.799,"MEAN_ANOMALY":297.3292,"EPHEMERIS_TYPE":0,"CLASSIFICATION_TYPE":"U","NORAD_CAT_ID":61602,"ELEMENT_SET_NO":999,"REV_AT_EPOCH":7713,"BSTAR":-0.0014863,"MEAN_MOTION_DOT":-5.14e-06,"MEAN_MOTION_DDOT":0.0},{"OBJECT_NAME":"ONEWEB-0697","OBJECT_ID":"2024-188K","EPOCH":"2026-04-22T05:20:56.126112","MEAN_MOTION":13.11423486,"ECCENTRICITY":0.0001851,"INCLINATION":87.8922,"RA_OF_ASC_NODE":32.1932,"ARG_OF_PERICENTER":54.2277,"MEAN_ANOMALY":305.9023,"EPHEMERIS_TYPE":0,"CLASSIFICATION_TYPE":"U","NORAD_CAT_ID":61603,"ELEMENT_SET_NO":999,"REV_AT_EPOCH":7711,"BSTAR":-0.0016880999999999999,"MEAN_MOTION_DOT":-5.86e-06,"MEAN_MOTION_DDOT":0.0},{"OBJECT_NAME":"ONEWEB-0698","OBJECT_ID":"2024-188L","EPOCH":"2026-04-22T04:49:10.905888","MEAN_MOTION":13.11418788,"ECCENTRICITY":0.0002783,"INCLINATION":87.8921,"RA_OF_ASC_NODE":32.2128,"ARG_OF_PERICENTER":59.3675,"MEAN_ANOMALY":300.7727,"EPHEMERIS_TYPE":0,"CLASSIFICATION_TYPE":"U","NORAD_CAT_ID":61604,"ELEMENT_SET_NO":999,"REV_AT_EPOCH":7713,"BSTAR":-0.00069043,"MEAN_MOTION_DOT":-2.32e-06,"MEAN_MOTION_DDOT":0.0},{"OBJECT_NAME":"ONEWEB-0699","OBJECT_ID":"2024-188M","EPOCH":"2026-04-22T05:53:28.792896","MEAN_MOTION":13.10376407,"ECCENTRICITY":0.0002045,"INCLINATION":87.8848,"RA_OF_ASC_NODE":47.3969,"ARG_OF_PERICENTER":59.1951,"MEAN_ANOMALY":300.9378,"EPHEMERIS_TYPE":0,"CLASSIFICATION_TYPE":"U","NORAD_CAT_ID":61605,"ELEMENT_SET_NO":999,"REV_AT_EPOCH":7598,"BSTAR":-0.00027376,"MEAN_MOTION_DOT":-8.3e-07,"MEAN_MOTION_DDOT":0.0}]