ONEWEB-0694             
1 56722U 23068N   26112.27666950  .00000109  00000+0  25058-3 0  9996
2 56722  87.9087 239.8563 0001465 110.5810 249.5478 13.16595210144417
ONEWEB-0696             
1 56723U 23068P   26111.89024600  .00000145  00000+0  34997-3 0  9996
2 56723  87.8945 270.4522 0002169  87.9296 272.2082 13.15548523141968
ONEWEB-0703             
1 56724U 23068Q   26112.12793079  .00000111  00000+0  25983-3 0  9995
2 56724  87.8945 270.3858 0002696  93.6756 266.4682 13.15549304141880
ONEWEB-0721             
1 56725U 23068R   26112.30335236  .00000086  00000+0  17167-3 0  9999
2 56725  86.6722 103.3567 0001966  87.2950 272.8408 13.22465693150554
ONEWEB-0015             
1 61594U 24188A   26112.23134297  .00000582  00000+0  16075-2 0  9996
2 61594  87.8921  32.2176 0001785  97.4379 262.6951 13.11415754 77123
ONEWEB-0687             
1 61595U 24188B   26112.26581571 -.00000056  00000+0 -17858-3 0  9990
2 61595  87.9177  16.9903 0001408  90.7386 269.3907 13.17647372 78531
ONEWEB-0688             
1 61596U 24188C   26112.29451144  .00000025  00000+0  30176-4 0  9999
2 61596  87.9179  16.9841 0002051 116.6525 243.4817 13.17647732 78536
ONEWEB-0689             
1 61597U 24188D   26112.26524244 -.00000446  00000+0 -12951-2 0  9997
2 61597  87.8941  32.1581 0001531  75.2094 284.9204 13.11417273 77120
ONEWEB-0690             
1 61598U 24188E   26112.19912377 -.00000363  00000+0 -10606-2 0  9991
2 61598  87.8932  32.1894 0002536  78.6488 281.4924 13.11416933 77299
ONEWEB-0691             
1 61599U 24188F   26112.19403886 -.00000494  00000+0 -14306-2 0  9998
2 61599  87.8941  32.0933 0001760  91.3001 268.8329 13.11417492 77147
ONEWEB-0692             
1 61600U 24188G   26112.21438821  .00000387  00000+0  10559-2 0  9996
2 61600  87.8917  32.2132 0001816  53.0445 307.0849 13.11417897 77136
ONEWEB-0693             
1 61601U 24188H   26112.23038759  .00000023  00000+0  25555-4 0  9996
2 61601  87.9176  17.0186 0002636  84.2011 275.9421 13.17647318 78512
ONEWEB-0695             
1 61602U 24188J   26112.26693503 -.00000514  00000+0 -14863-2 0  9999
2 61602  87.8922  32.1947 0001514  62.7990 297.3292 13.11417474 77138
ONEWEB-0697             
1 61603U 24188K   26112.22287183 -.00000586  00000+0 -16881-2 0  9990
2 61603  87.8922  32.1932 0001851  54.2277 305.9023 13.11423486 77117
ONEWEB-0698             
1 61604U 24188L   26112.20082067 -.00000232  00000+0 -69043-3 0  9990
2 61604  87.8921  32.2128 0002783  59.3675 300.7727 13.11418788 77133
ONEWEB-0699             
1 61605U 24188M   26112.24547214 -.00000083  00000+0 -27376-3 0  9992
2 61605  87.8848  47.3969 0002045  59.1951 300.9378 13.10376407 75983
